[{"OBJECT_NAME":"CSC-1","OBJECT_ID":"2023-155G","EPOCH":"2026-03-09T17:46:02.342496","MEAN_MOTION":15.1003596,"ECCENTRICITY":0.00075041,"INCLINATION":97.5446,"RA_OF_ASC_NODE":139.7305,"ARG_OF_PERICENTER":212.9992,"MEAN_ANOMALY":147.077,"EPHEMERIS_TYPE":0,"CLASSIFICATION_TYPE":"U","NORAD_CAT_ID":58022,"ELEMENT_SET_NO":999,"REV_AT_EPOCH":13272,"BSTAR":0.00054556609,"MEAN_MOTION_DOT":8.819e-5,"MEAN_MOTION_DDOT":0},{"OBJECT_NAME":"OBJECT C","OBJECT_ID":"2025-226C","EPOCH":"2026-03-09T22:35:45.758112","MEAN_MOTION":15.1432456,"ECCENTRICITY":0.00153316,"INCLINATION":97.6396,"RA_OF_ASC_NODE":148.5375,"ARG_OF_PERICENTER":120.7219,"MEAN_ANOMALY":239.5525,"EPHEMERIS_TYPE":0,"CLASSIFICATION_TYPE":"U","NORAD_CAT_ID":65940,"ELEMENT_SET_NO":999,"REV_AT_EPOCH":2265,"BSTAR":0.00059133816,"MEAN_MOTION_DOT":0.00010804,"MEAN_MOTION_DDOT":0}]
